{"personAddress":[{"fname":"murali","lname":"reddy","address":"bagalur","city":"hosur","state":"tn","zip":635103,"phoneNo":9788760086},{"fname":"murali21","lname":"28reddy","address":"bangalur","city":"hosur","state":"ka","zip":565103,"phoneNo":9888760086},{"fname":"manoj","lname":"raki","address":"bopal","city":"mahi","state":"guj","phoneNo":9807987909,"zip":87687},{"fname":"maruthi","lname":"ms","address":"karna","city":"bangalore","state":"ka","phoneNo":9696969696,"zip":696969},{"fname":"marurtg","lname":"hg\\","address":"hgkj","city":"yhgy","state":"jg","phoneNo":989898989,"zip":98989},{"fname":"mahj","lname":"kjg","address":"kuhkb","city":"kuo","state":"hkh","phoneNo":9898989898,"zip":90909},{"fname":"mawx","lname":"casd","address":"dads","city":"aqd","state":"adsxcda","phoneNo":9898989898,"zip":7878},{"fname":"mjgbk","lname":"kjbk","address":"hmbjk","city":"jkhjk","state":"kj","phoneNo":989899889,"zip":8989},{"fname":"maruthi","lname":"ns","address":"kolar","city":"bangalore","state":"ka","phoneNo":97878787,"zip":7877},{"fname":"venky","lname":"vr","address":"kamto","city":"chennai","state":"tn","phoneNo":980989887,"zip":9898}]}